start=new Date('2022-03-11T00:00:00.000Z').valueOf();
sats=[{"GP_ID":"198396991","SITE":"AFETR","ECCENTRICITY":"0.00016320","ARG_OF_PERICENTER":"68.2241","OBJECT_NAME":"STARLINK-1563","CLASSIFICATION_TYPE":"U","OBJECT_ID":"2020-055BD","MEAN_ELEMENT_THEORY":"SGP4","LAUNCH_DATE":"2020-08-07","RA_OF_ASC_NODE":"171.3326","TLE_LINE2":"2 46078  53.0551 171.3326 0001632  68.2241 291.8922 15.06388470 89208","DECAY_DATE":null,"SEMIMAJOR_AXIS":"6925.384","TIME_SYSTEM":"UTC","ELEMENT_SET_NO":"999","REV_AT_EPOCH":"8920","BSTAR":"0.00010317000000","CENTER_NAME":"EARTH","OBJECT_TYPE":"PAYLOAD","INCLINATION":"53.0551","MEAN_MOTION_DOT":"0.00001255","FILE":"3353482","MEAN_MOTION":"15.06388470","EPOCH":"2022-03-10T13:49:53.531328","RCS_SIZE":"LARGE","PERIOD":"95.593","MEAN_MOTION_DDOT":"0.0000000000000","TLE_LINE1":"1 46078U 20055BD  22069.57631402  .00001255  00000-0  10317-3 0  9992","MEAN_ANOMALY":"291.8922","COUNTRY_CODE":"US","PERIAPSIS":"546.119","EPHEMERIS_TYPE":"0","APOAPSIS":"548.379","NORAD_CAT_ID":"46078","REF_FRAME":"TEME"},{"MEAN_ANOMALY":"301.5243","COUNTRY_CODE":"US","FILE":"3353720","MEAN_MOTION":"15.06386311","MEAN_MOTION_DDOT":"0.0000000000000","RCS_SIZE":"LARGE","PERIOD":"95.593","EPOCH":"2022-03-10T13:39:16.506720","TLE_LINE1":"1 46079U 20055BE  22069.56894105  .00001995  00000-0  15283-3 0  9991","REF_FRAME":"TEME","EPHEMERIS_TYPE":"0","APOAPSIS":"548.280","NORAD_CAT_ID":"46079","PERIAPSIS":"546.231","MEAN_ELEMENT_THEORY":"SGP4","LAUNCH_DATE":"2020-08-07","RA_OF_ASC_NODE":"171.3539","OBJECT_ID":"2020-055BE","CLASSIFICATION_TYPE":"U","ECCENTRICITY":"0.00014800","ARG_OF_PERICENTER":"58.5891","OBJECT_NAME":"STARLINK-1566","GP_ID":"198408331","SITE":"AFETR","MEAN_MOTION_DOT":"0.00001995","CENTER_NAME":"EARTH","OBJECT_TYPE":"PAYLOAD","INCLINATION":"53.0545","TIME_SYSTEM":"UTC","ELEMENT_SET_NO":"999","REV_AT_EPOCH":"8870","BSTAR":"0.00015283000000","TLE_LINE2":"2 46079  53.0545 171.3539 0001480  58.5891 301.5243 15.06386311 88703","DECAY_DATE":null,"SEMIMAJOR_AXIS":"6925.391"},{"COUNTRY_CODE":"US","MEAN_ANOMALY":"289.6206","TLE_LINE1":"1 46080U 20055BF  22069.59473243 -.00001733  00000-0 -97480-4 0  9994","RCS_SIZE":"LARGE","PERIOD":"95.593","EPOCH":"2022-03-10T14:16:24.881952","MEAN_MOTION_DDOT":"0.0000000000000","FILE":"3353731","MEAN_MOTION":"15.06385980","PERIAPSIS":"546.263","REF_FRAME":"TEME","NORAD_CAT_ID":"46080","APOAPSIS":"548.250","EPHEMERIS_TYPE":"0","OBJECT_NAME":"STARLINK-1568","ARG_OF_PERICENTER":"70.4938","ECCENTRICITY":"0.00014350","SITE":"AFETR","GP_ID":"198407844","RA_OF_ASC_NODE":"171.2327","LAUNCH_DATE":"2020-08-07","MEAN_ELEMENT_THEORY":"SGP4","CLASSIFICATION_TYPE":"U","OBJECT_ID":"2020-055BF","BSTAR":"-0.00009748000000","REV_AT_EPOCH":"8870","ELEMENT_SET_NO":"999","TIME_SYSTEM":"UTC","SEMIMAJOR_AXIS":"6925.392","DECAY_DATE":null,"TLE_LINE2":"2 46080  53.0533 171.2327 0001435  70.4938 289.6206 15.06385980 88707","MEAN_MOTION_DOT":"-0.00001733","INCLINATION":"53.0533","OBJECT_TYPE":"PAYLOAD","CENTER_NAME":"EARTH"},{"REF_FRAME":"TEME","APOAPSIS":"548.217","NORAD_CAT_ID":"46081","EPHEMERIS_TYPE":"0","PERIAPSIS":"546.295","COUNTRY_CODE":"US","MEAN_ANOMALY":"289.5022","RCS_SIZE":"LARGE","PERIOD":"95.593","MEAN_MOTION_DDOT":"0.0000000000000","EPOCH":"2022-03-10T13:28:38.759808","TLE_LINE1":"1 46081U 20055BG  22069.56155972  .00002281  00000-0  17204-3 0  9990","FILE":"3353731","MEAN_MOTION":"15.06386104","MEAN_MOTION_DOT":"0.00002281","INCLINATION":"53.0524","CENTER_NAME":"EARTH","OBJECT_TYPE":"PAYLOAD","REV_AT_EPOCH":"8869","BSTAR":"0.00017204000000","TIME_SYSTEM":"UTC","ELEMENT_SET_NO":"999","DECAY_DATE":null,"SEMIMAJOR_AXIS":"6925.391","TLE_LINE2":"2 46081  53.0524 171.3836 0001388  70.6117 289.5022 15.06386104 88694","LAUNCH_DATE":"2020-08-07","RA_OF_ASC_NODE":"171.3836","MEAN_ELEMENT_THEORY":"SGP4","OBJECT_ID":"2020-055BG","CLASSIFICATION_TYPE":"U","OBJECT_NAME":"STARLINK-1571","ECCENTRICITY":"0.00013880","ARG_OF_PERICENTER":"70.6117","GP_ID":"198408605","SITE":"AFETR"},{"PERIAPSIS":"546.119","REF_FRAME":"TEME","EPHEMERIS_TYPE":"0","NORAD_CAT_ID":"46082","APOAPSIS":"548.273","MEAN_ANOMALY":"295.2325","COUNTRY_CODE":"US","FILE":"3354091","MEAN_MOTION":"15.06405786","TLE_LINE1":"1 46082U 20055BH  22069.78272449  .00005506  00000-0  38818-3 0  9991","RCS_SIZE":"LARGE","PERIOD":"95.592","MEAN_MOTION_DDOT":"0.0000000000000","EPOCH":"2022-03-10T18:47:07.395936","ELEMENT_SET_NO":"999","TIME_SYSTEM":"UTC","BSTAR":"0.00038818000000","REV_AT_EPOCH":"8926","TLE_LINE2":"2 46082  53.0541 170.3866 0001555  64.8825 295.2325 15.06405786 89265","SEMIMAJOR_AXIS":"6925.331","DECAY_DATE":null,"MEAN_MOTION_DOT":"0.00005506","OBJECT_TYPE":"PAYLOAD","CENTER_NAME":"EARTH","INCLINATION":"53.0541","ARG_OF_PERICENTER":"64.8825","ECCENTRICITY":"0.00015550","OBJECT_NAME":"STARLINK-1578","SITE":"AFETR","GP_ID":"198435765","MEAN_ELEMENT_THEORY":"SGP4","RA_OF_ASC_NODE":"170.3866","LAUNCH_DATE":"2020-08-07","OBJECT_ID":"2020-055BH","CLASSIFICATION_TYPE":"U"},{"NORAD_CAT_ID":"46083","APOAPSIS":"548.175","EPHEMERIS_TYPE":"0","REF_FRAME":"TEME","PERIAPSIS":"546.220","TLE_LINE1":"1 46083U 20055BJ  22069.55419142  .00005260  00000-0  37172-3 0  9999","MEAN_MOTION_DDOT":"0.0000000000000","RCS_SIZE":"LARGE","PERIOD":"95.592","EPOCH":"2022-03-10T13:18:02.138688","MEAN_MOTION":"15.06405276","FILE":"3353744","COUNTRY_CODE":"US","MEAN_ANOMALY":"292.8688","INCLINATION":"53.0525","OBJECT_TYPE":"PAYLOAD","CENTER_NAME":"EARTH","MEAN_MOTION_DOT":"0.00005260","SEMIMAJOR_AXIS":"6925.332","DECAY_DATE":null,"TLE_LINE2":"2 46083  53.0525 171.4121 0001411  67.2449 292.8688 15.06405276 88699","BSTAR":"0.00037172000000","REV_AT_EPOCH":"8869","ELEMENT_SET_NO":"999","TIME_SYSTEM":"UTC","OBJECT_ID":"2020-055BJ","CLASSIFICATION_TYPE":"U","RA_OF_ASC_NODE":"171.4121","LAUNCH_DATE":"2020-08-07","MEAN_ELEMENT_THEORY":"SGP4","SITE":"AFETR","GP_ID":"198408689","OBJECT_NAME":"STARLINK-1579","ARG_OF_PERICENTER":"67.2449","ECCENTRICITY":"0.00014110"},{"PERIAPSIS":"546.089","REF_FRAME":"TEME","NORAD_CAT_ID":"46117","APOAPSIS":"548.392","EPHEMERIS_TYPE":"0","COUNTRY_CODE":"US","MEAN_ANOMALY":"300.4214","TLE_LINE1":"1 46117U 20057A   22069.32197904  .00001912  00000-0  14727-3 0  9994","PERIOD":"95.593","RCS_SIZE":"LARGE","MEAN_MOTION_DDOT":"0.0000000000000","EPOCH":"2022-03-10T07:43:38.989056","MEAN_MOTION":"15.06391270","FILE":"3353482","BSTAR":"0.00014727000000","REV_AT_EPOCH":"8623","ELEMENT_SET_NO":"999","TIME_SYSTEM":"UTC","SEMIMAJOR_AXIS":"6925.375","DECAY_DATE":null,"TLE_LINE2":"2 46117  53.0542  12.4646 0001663  59.6939 300.4214 15.06391270 86237","MEAN_MOTION_DOT":"0.00001912","INCLINATION":"53.0542","OBJECT_TYPE":"PAYLOAD","CENTER_NAME":"EARTH","OBJECT_NAME":"STARLINK-1585","ARG_OF_PERICENTER":"59.6939","ECCENTRICITY":"0.00016630","SITE":"AFETR","GP_ID":"198396504","RA_OF_ASC_NODE":"12.4646","LAUNCH_DATE":"2020-08-18","MEAN_ELEMENT_THEORY":"SGP4","OBJECT_ID":"2020-057A","CLASSIFICATION_TYPE":"U"},{"ELEMENT_SET_NO":"999","TIME_SYSTEM":"UTC","BSTAR":"0.00021778000000","REV_AT_EPOCH":"8727","TLE_LINE2":"2 46118  53.0551  31.2270 0001644  56.3104 303.8041 15.06390553 87270","SEMIMAJOR_AXIS":"6925.378","DECAY_DATE":null,"MEAN_MOTION_DOT":"0.00002963","OBJECT_TYPE":"PAYLOAD","CENTER_NAME":"EARTH","INCLINATION":"53.0551","ARG_OF_PERICENTER":"56.3104","ECCENTRICITY":"0.00016440","OBJECT_NAME":"STARLINK-1588","SITE":"AFETR","GP_ID":"198436514","MEAN_ELEMENT_THEORY":"SGP4","RA_OF_ASC_NODE":"31.2270","LAUNCH_DATE":"2020-08-18","CLASSIFICATION_TYPE":"U","OBJECT_ID":"2020-057B","PERIAPSIS":"546.104","REF_FRAME":"TEME","EPHEMERIS_TYPE":"0","NORAD_CAT_ID":"46118","APOAPSIS":"548.381","MEAN_ANOMALY":"303.8041","COUNTRY_CODE":"US","FILE":"3354091","MEAN_MOTION":"15.06390553","TLE_LINE1":"1 46118U 20057B   22069.59658544  .00002963  00000-0  21778-3 0  9997","PERIOD":"95.593","RCS_SIZE":"LARGE","EPOCH":"2022-03-10T14:19:04.982016","MEAN_MOTION_DDOT":"0.0000000000000"},{"INCLINATION":"53.0557","CENTER_NAME":"EARTH","OBJECT_TYPE":"PAYLOAD","MEAN_MOTION_DOT":"0.00008128","DECAY_DATE":null,"SEMIMAJOR_AXIS":"6925.311","TLE_LINE2":"2 46119  53.0557  30.1015 0001810  55.4658 304.6502 15.06412111 87299","REV_AT_EPOCH":"8729","BSTAR":"0.00056374000000","TIME_SYSTEM":"UTC","ELEMENT_SET_NO":"999","OBJECT_ID":"2020-057C","CLASSIFICATION_TYPE":"U","LAUNCH_DATE":"2020-08-18","RA_OF_ASC_NODE":"30.1015","MEAN_ELEMENT_THEORY":"SGP4","GP_ID":"198435270","SITE":"AFETR","OBJECT_NAME":"STARLINK-1593","ECCENTRICITY":"0.00018100","ARG_OF_PERICENTER":"55.4658","APOAPSIS":"548.430","NORAD_CAT_ID":"46119","EPHEMERIS_TYPE":"0","REF_FRAME":"TEME","PERIAPSIS":"545.923","RCS_SIZE":"LARGE","MEAN_MOTION_DDOT":"0.0000000000000","PERIOD":"95.591","EPOCH":"2022-03-10T20:25:18.452928","TLE_LINE1":"1 46119U 20057C   22069.85090802  .00008128  00000-0  56374-3 0  9993","FILE":"3354091","MEAN_MOTION":"15.06412111","COUNTRY_CODE":"US","MEAN_ANOMALY":"304.6502"},{"REV_AT_EPOCH":"8724","BSTAR":"-0.00005423400000","TIME_SYSTEM":"UTC","ELEMENT_SET_NO":"999","DECAY_DATE":null,"SEMIMAJOR_AXIS":"6925.360","TLE_LINE2":"2 46120  53.0562  32.2422 0001663  57.6902 302.4248 15.06396332 87248","MEAN_MOTION_DOT":"-0.00001089","INCLINATION":"53.0562","CENTER_NAME":"EARTH","OBJECT_TYPE":"PAYLOAD","OBJECT_NAME":"STARLINK-1601","ECCENTRICITY":"0.00016630","ARG_OF_PERICENTER":"57.6902","GP_ID":"198397244","SITE":"AFETR","LAUNCH_DATE":"2020-08-18","RA_OF_ASC_NODE":"32.2422","MEAN_ELEMENT_THEORY":"SGP4","OBJECT_ID":"2020-057D","CLASSIFICATION_TYPE":"U","PERIAPSIS":"546.073","REF_FRAME":"TEME","APOAPSIS":"548.376","NORAD_CAT_ID":"46120","EPHEMERIS_TYPE":"0","COUNTRY_CODE":"US","MEAN_ANOMALY":"302.4248","MEAN_MOTION_DDOT":"0.0000000000000","RCS_SIZE":"LARGE","PERIOD":"95.592","EPOCH":"2022-03-10T08:55:17.751072","TLE_LINE1":"1 46120U 20057D   22069.37173323 -.00001089  00000-0 -54234-4 0  9997","FILE":"3353482","MEAN_MOTION":"15.06396332"}];
